      2.10          N: GNSS NAV DATA                        RINEX VERSION / TYPE
fic2rin                                 08/19/2022 00:17:36 PGM / RUN BY / DATE
                                                            END OF HEADER
6  22  8 18  1 59 44.0  .429035164416D-03  .139834810398D-10  .000000000000D+00
     .100000000000D+02 -.359687500000D+02  .357300597290D-08  .252082557814D+01
    -.171549618244D-05  .244112126529D-02  .945478677750D-05  .515378508377D+04
     .352784000000D+06 -.502914190292D-07  .110817391413D+01 -.372529029846D-08
     .987573163998D+00  .211187500000D+03 -.893130969073D+00 -.758745890526D-08
     .428589281035D-10  .100000000000D+01  .222300000000D+04  .000000000000D+00
     .240000000000D+01  .000000000000D+00  .372529029846D-08  .100000000000D+02
     .345600000000D+06  .400000000000D+01
21 22  8 19  0  0  0.0  .160369090736D-03 -.341060513165D-12  .000000000000D+00
     .510000000000D+02 -.379062500000D+02  .415124434456D-08 -.272404240463D+01
    -.173598527908D-05  .242960422765D-01  .701844692230D-05  .515371714020D+04
     .432000000000D+06  .465661287308D-07  .101992560025D+01  .320374965668D-06
     .960604690527D+00  .237312500000D+03 -.908238895658D+00 -.763603235711D-08
     .446447167745D-10  .100000000000D+01  .222300000000D+04  .000000000000D+00
     .240000000000D+01  .000000000000D+00 -.102445483208D-07  .510000000000D+02
     .424800000000D+06  .400000000000D+01
24 22  8 19  0  0  0.0  .164120458066D-03 -.117097442853D-10  .000000000000D+00
     .340000000000D+02  .750000000000D+01  .532629329007D-08  .159617885809D+01
     .443309545517D-06  .128119096626D-01  .949203968048D-05  .515367963791D+04
     .432000000000D+06 -.350177288055D-06 -.212132366405D+01  .577419996262D-07
     .934098720070D+00  .185062500000D+03  .829571511692D+00 -.841999358367D-08
    -.258225041824D-09  .100000000000D+01  .222300000000D+04  .000000000000D+00
     .240000000000D+01  .000000000000D+00  .279396772385D-08  .340000000000D+02
     .424800000000D+06  .400000000000D+01
26 22  8 19  0  0  0.0  .224369112402D-03  .193267624127D-11  .000000000000D+00
     .320000000000D+02  .612500000000D+02  .504056710271D-08 -.100931342426D+01
     .320561230183D-05  .706204865128D-02  .677257776260D-05  .515380208778D+04
     .432000000000D+06  .156462192535D-06 -.105080974658D+01 -.465661287308D-07
     .936365995859D+00  .237968750000D+03  .384641520560D+00 -.833499004293D-08
    -.143934566881D-09  .100000000000D+01  .222300000000D+04  .000000000000D+00
     .240000000000D+01  .000000000000D+00  .698491930962D-08  .320000000000D+02
     .424800000000D+06  .400000000000D+01
13 22  8 19  0  0  0.0  .370492693037D-03  .716227077646D-11  .000000000000D+00
     .970000000000D+02 -.224687500000D+02  .457554773279D-08  .305396361341D+01
    -.126846134663D-05  .629102881067D-02  .780448317528D-05  .515367280579D+04
     .432000000000D+06  .000000000000D+00 -.295118226902D+01 -.111758708954D-06
     .969320143480D+00  .235062500000D+03  .924340544460D+00 -.782282585210D-08
     .464305054455D-11  .100000000000D+01  .222300000000D+04  .000000000000D+00
     .240000000000D+01  .000000000000D+00 -.111758708954D-07  .970000000000D+02
     .424800000000D+06  .400000000000D+01
29 22  8 19  0  0  0.0 -.544002279639D-03 -.329691829393D-11  .000000000000D+00
     .100000000000D+03  .465625000000D+01  .408552732147D-08 -.282267221133D+01
     .154599547386D-06  .226019124966D-02  .469759106636D-05  .515366048622D+04
     .432000000000D+06  .577419996262D-07  .130103716759D+00  .577419996262D-07
     .980217272498D+00  .301281250000D+03  .241649592368D+01 -.798283251702D-08
    -.201794119821D-09  .100000000000D+01  .222300000000D+04  .000000000000D+00
     .340000000000D+01  .000000000000D+00 -.102445483208D-07  .100000000000D+03
     .424800000000D+06  .400000000000D+01
31 22  8 19  0  0  0.0 -.190150458366D-03 -.136424205266D-11  .000000000000D+00
     .520000000000D+02  .189375000000D+02  .482198656938D-08  .966085527740D-01
     .105611979961D-05  .104398524854D-01  .882148742676D-05  .515356447983D+04
     .432000000000D+06  .614672899246D-07 -.201659719160D+01  .109896063805D-06
     .954683896793D+00  .204781250000D+03  .411807322662D+00 -.820748473183D-08
    -.251081887140D-09  .100000000000D+01  .222300000000D+04  .000000000000D+00
     .240000000000D+01  .000000000000D+00 -.135041773319D-07  .520000000000D+02
     .424800000000D+06  .400000000000D+01
32 22  8 19  0  0  0.0 -.207768753171D-03 -.106865627458D-10  .000000000000D+00
     .960000000000D+02 -.228437500000D+02  .484484466437D-08 -.206778930631D+01
    -.116974115372D-05  .606895505916D-02  .706873834133D-05  .515363179970D+04
     .432000000000D+06  .122934579849D-06 -.309494080023D+01  .242143869400D-07
     .958904048260D+00  .240218750000D+03 -.228588017389D+01 -.808212236712D-08
     .142505935944D-09  .100000000000D+01  .222300000000D+04  .000000000000D+00
     .240000000000D+01  .000000000000D+00  .465661287308D-09  .960000000000D+02
     .424800000000D+06  .400000000000D+01
30 22  8 19  0  0  0.0 -.536062289029D-03 -.568434188608D-12  .000000000000D+00
     .119000000000D+03  .270000000000D+02  .520985986872D-08  .540028512549D+00
     .144727528095D-05  .596223620232D-02  .913813710213D-05  .515372769165D+04
     .432000000000D+06  .279396772385D-07 -.202508415430D+01 -.111758708954D-07
     .935657623130D+00  .186906250000D+03 -.265480617556D+01 -.835070498324D-08
    -.312513017422D-09  .100000000000D+01  .222300000000D+04  .000000000000D+00
     .240000000000D+01  .000000000000D+00  .372529029846D-08  .119000000000D+03
     .424800000000D+06  .400000000000D+01
19 22  8 19  0  0  0.0  .199015717953D-03  .500222085975D-11  .000000000000D+00
     .790000000000D+02 -.126875000000D+02  .412660046090D-08 -.560728598563D+00
    -.530853867531D-06  .921412592288D-02  .470504164696D-05  .515371355247D+04
     .432000000000D+06 -.249594449997D-06  .161391751369D+00 -.707805156708D-07
     .976995956146D+00  .300718750000D+03  .215352375639D+01 -.813891044686D-08
    -.996470078407D-10  .100000000000D+01  .222300000000D+04  .000000000000D+00
     .240000000000D+01  .000000000000D+00 -.153668224812D-07  .790000000000D+02
     .424800000000D+06  .400000000000D+01
22 22  8 19  0  0  0.0  .312266405672D-03  .659383658785D-11  .000000000000D+00
     .970000000000D+02 -.233437500000D+02  .472662545435D-08 -.295668113670D+01
    -.124424695969D-05  .134439497488D-01  .722333788872D-05  .515372677612D+04
     .432000000000D+06  .298023223877D-06 -.300412005169D+01 -.108033418655D-06
     .962076918617D+00  .237781250000D+03 -.184459639196D+01 -.789318592573D-08
     .357157734196D-10  .100000000000D+01  .222300000000D+04  .000000000000D+00
     .240000000000D+01  .000000000000D+00 -.791624188423D-08  .970000000000D+02
     .424800000000D+06  .400000000000D+01
17 22  8 19  0  0  0.0  .649905297905D-03  .420641299570D-11  .000000000000D+00
     .110000000000D+03 -.818750000000D+01  .405624038726D-08 -.276151330450D+01
    -.281259417534D-06  .136247838382D-01  .426732003689D-05  .515360200500D+04
     .432000000000D+06  .106170773506D-06  .116684143929D+00  .242143869400D-07
     .978106615255D+00  .307562500000D+03 -.148622411977D+01 -.780103923031D-08
    -.155363614375D-09  .100000000000D+01  .222300000000D+04  .000000000000D+00
     .240000000000D+01  .000000000000D+00 -.111758708954D-07  .110000000000D+03
     .424800000000D+06  .400000000000D+01
11 22  8 19  0  0  0.0 -.117085874081D-04 -.136424205266D-11  .000000000000D+00
     .217000000000D+03 -.578750000000D+02  .416910223127D-08 -.294282357059D+01
    -.281818211079D-05  .655738869682D-03  .751949846745D-05  .515362659836D+04
     .432000000000D+06  .111758708954D-07  .115531555393D+01 -.204890966415D-07
     .963480025290D+00  .233468750000D+03  .300155637553D+01 -.801033366255D-08
     .101789954246D-09  .100000000000D+01  .222300000000D+04  .000000000000D+00
     .240000000000D+01  .000000000000D+00 -.838190317154D-08  .473000000000D+03
     .424800000000D+06  .400000000000D+01
25 22  8 19  0  0  0.0  .362372491509D-03  .420641299570D-11  .000000000000D+00
     .730000000000D+02  .652187500000D+02  .482734393539D-08 -.265801600069D+00
     .346638262272D-05  .104688545689D-01  .693090260029D-05  .515363180923D+04
     .432000000000D+06 -.502914190292D-07 -.100037603347D+01  .949949026108D-07
     .955573157880D+00  .241218750000D+03  .100497319063D+01 -.840463580110D-08
    -.146077513286D-09  .100000000000D+01  .222300000000D+04  .000000000000D+00
     .240000000000D+01  .000000000000D+00  .558793544769D-08  .730000000000D+02
     .424800000000D+06  .400000000000D+01
23 22  8 19  0  0  0.0 -.373241491616D-04 -.125055521494D-11  .000000000000D+00
     .219000000000D+03 -.285937500000D+02  .430410785480D-08  .534426672993D+00
    -.142119824886D-05  .251639564522D-02  .761263072491D-05  .515372456551D+04
     .432000000000D+06  .670552253723D-07  .212086484905D+01 -.149011611938D-07
     .969763720723D+00  .238906250000D+03  .298974818064D+01 -.793140180329D-08
     .366443835285D-09  .100000000000D+01  .222300000000D+04  .000000000000D+00
     .240000000000D+01  .000000000000D+00 -.838190317154D-08  .219000000000D+03
     .424800000000D+06  .400000000000D+01
14 22  8 19  0  0  0.0 -.108622480184D-03  .170530256582D-11  .000000000000D+00
     .127000000000D+03  .776250000000D+02  .477984195675D-08 -.112040686876D+00
     .375322997570D-05  .223792751785D-02  .642053782940D-05  .515366177750D+04
     .432000000000D+06  .596046447754D-07 -.955614151771D+00  .931322574615D-08
     .951451257455D+00  .252187500000D+03 -.305430695004D+01 -.827570185906D-08
    -.155006456641D-09  .100000000000D+01  .222300000000D+04  .000000000000D+00
     .240000000000D+01  .000000000000D+00 -.791624188423D-08  .639000000000D+03
     .424800000000D+06  .400000000000D+01
